{
    "links": {
        "self": "http://www.neowsapp.com/rest/v1/neo/3324629?api_key=iIulBulltgU6a56xZRHN4H3l9WmuAYTsLGpBGhQ2"
    },
    "id": "3324629",
    "neo_reference_id": "3324629",
    "name": "(2006 DS62)",
    "designation": "2006 DS62",
    "nasa_jpl_url": "http://ssd.jpl.nasa.gov/sbdb.cgi?sstr=3324629",
    "absolute_magnitude_h": 26.7,
    "estimated_diameter": {
        "kilometers": {
            "estimated_diameter_min": 0.0121494041,
            "estimated_diameter_max": 0.0271668934
        },
        "meters": {
            "estimated_diameter_min": 12.14940408,
            "estimated_diameter_max": 27.1668934089
        },
        "miles": {
            "estimated_diameter_min": 0.0075492874,
            "estimated_diameter_max": 0.0168807197
        },
        "feet": {
            "estimated_diameter_min": 39.8602508817,
            "estimated_diameter_max": 89.1302305717
        }
    },
    "is_potentially_hazardous_asteroid": false,
    "close_approach_data": [
        {
            "close_approach_date": "2006-03-04",
            "close_approach_date_full": "2006-Mar-04 16:20",
            "epoch_date_close_approach": 1141489200000,
            "relative_velocity": {
                "kilometers_per_second": "9.6995884205",
                "kilometers_per_hour": "34918.518313934",
                "miles_per_hour": "21697.0093378997"
            },
            "miss_distance": {
                "astronomical": "0.0317344317",
                "lunar": "12.3446939313",
                "kilometers": "4747403.387980479",
                "miles": "2949899.6766254502"
            },
            "orbiting_body": "Earth"
        }
    ],
    "orbital_data": {
        "orbit_id": "7",
        "orbit_determination_date": "2017-04-06 09:09:02",
        "first_observation_date": "2006-02-25",
        "last_observation_date": "2006-03-02",
        "data_arc_in_days": 5,
        "observations_used": 22,
        "orbit_uncertainty": "8",
        "minimum_orbit_intersection": ".0104125",
        "jupiter_tisserand_invariant": "3.377",
        "epoch_osculation": "2453793.5",
        "eccentricity": ".5707317473032067",
        "semi_major_axis": "2.26895020759922",
        "inclination": "1.889578817687775",
        "ascending_node_longitude": "153.5091757935051",
        "orbital_period": "1248.348589463578",
        "perihelion_distance": ".9739882910721434",
        "perihelion_argument": "38.12597339048737",
        "aphelion_distance": "3.563912124126296",
        "perihelion_time": "2453820.301100798479",
        "mean_anomaly": "352.2710720636146",
        "mean_motion": ".2883809883220951",
        "equinox": "J2000",
        "orbit_class": {
            "orbit_class_type": "APO",
            "orbit_class_description": "Near-Earth asteroid orbits which cross the Earth’s orbit similar to that of 1862 Apollo",
            "orbit_class_range": "a (semi-major axis) > 1.0 AU; q (perihelion) < 1.017 AU"
        }
    },
    "is_sentry_object": false
}